{
  "type": "FeatureCollection",
  "features": [
    {
      "type": "Feature",
      "properties": {
        "norad_id": 29798,
        "name": "FENGYUN 1C DEB",
        "group": "fengyun-1c-debris",
        "lat": 42.17840788263531,
        "lon": 50.10205366637355,
        "alt_km": 963.2984784993942,
        "timestamp": "2025-12-20T14:38:02.241244+00:00",
        "meta_object_name": "FENGYUN 1C DEB",
        "meta_object_id": "1999-025CQ",
        "meta_epoch": "2025-12-20T04:15:14.103648",
        "meta_mean_motion": 13.9960029,
        "meta_eccentricity": 0.01119072,
        "meta_inclination": 99.2954,
        "meta_ra_of_asc_node": 58.1967,
        "meta_arg_of_pericenter": 252.1844,
        "meta_mean_anomaly": 132.1574,
        "meta_ephemeris_type": 0,
        "meta_classification_type": "U",
        "meta_norad_cat_id": 29798,
        "meta_element_set_no": 999,
        "meta_rev_at_epoch": 96029,
        "meta_bstar": 0.0011440608,
        "meta_mean_motion_dot": 1.717e-05,
        "meta_mean_motion_ddot": 0,
        "tle_line1": "1 29798U 99025CQ  25354.17724657  .00001717  00000+0  11441-2 0  9996",
        "tle_line2": "2 29798  99.2954  58.1967 0111907 252.1844 132.1574 13.99600290960294"
      },
      "geometry": {
        "type": "Point",
        "coordinates": [
          50.10205366637355,
          42.17840788263531
        ]
      }
    },
    {
      "type": "Feature",
      "properties": {
        "norad_id": 29800,
        "name": "FENGYUN 1C DEB",
        "group": "fengyun-1c-debris",
        "lat": -0.5274459196494103,
        "lon": -164.60412876054448,
        "alt_km": 812.8080921668279,
        "timestamp": "2025-12-20T14:38:02.241254+00:00",
        "meta_object_name": "FENGYUN 1C DEB",
        "meta_object_id": "1999-025CS",
        "meta_epoch": "2025-12-19T00:08:20.212800",
        "meta_mean_motion": 13.98600279,
        "meta_eccentricity": 0.01337275,
        "meta_inclination": 98.2918,
        "meta_ra_of_asc_node": 14.0214,
        "meta_arg_of_pericenter": 209.431,
        "meta_mean_anomaly": 180.2368,
        "meta_ephemeris_type": 0,
        "meta_classification_type": "U",
        "meta_norad_cat_id": 29800,
        "meta_element_set_no": 999,
        "meta_rev_at_epoch": 95664,
        "meta_bstar": 0.001576295,
        "meta_mean_motion_dot": 2.403e-05,
        "meta_mean_motion_ddot": 0,
        "tle_line1": "1 29800U 99025CS  25353.00578950  .00002403  00000+0  15763-2 0  9998",
        "tle_line2": "2 29800  98.2918  14.0214 0133727 209.4310 180.2368 13.98600279956645"
      },
      "geometry": {
        "type": "Point",
        "coordinates": [
          -164.60412876054448,
          -0.5274459196494103
        ]
      }
    },
    {
      "type": "Feature",
      "properties": {
        "norad_id": 29801,
        "name": "FENGYUN 1C DEB",
        "group": "fengyun-1c-debris",
        "lat": 77.77996180570845,
        "lon": -149.84015756504013,
        "alt_km": 834.779601094413,
        "timestamp": "2025-12-20T14:38:02.241265+00:00",
        "meta_object_name": "FENGYUN 1C DEB",
        "meta_object_id": "1999-025CT",
        "meta_epoch": "2025-12-20T04:56:03.043392",
        "meta_mean_motion": 14.35904618,
        "meta_eccentricity": 0.01028246,
        "meta_inclination": 98.7952,
        "meta_ra_of_asc_node": 255.3803,
        "meta_arg_of_pericenter": 245.1243,
        "meta_mean_anomaly": 268.7367,
        "meta_ephemeris_type": 0,
        "meta_classification_type": "U",
        "meta_norad_cat_id": 29801,
        "meta_element_set_no": 999,
        "meta_rev_at_epoch": 99048,
        "meta_bstar": 0.00011356946,
        "meta_mean_motion_dot": 3.01e-06,
        "meta_mean_motion_ddot": 0,
        "tle_line1": "1 29801U 99025CT  25354.20559078  .00000301  00000+0  11357-3 0  9993",
        "tle_line2": "2 29801  98.7952 255.3803 0102824 245.1243 268.7367 14.35904618990486"
      },
      "geometry": {
        "type": "Point",
        "coordinates": [
          -149.84015756504013,
          77.77996180570845
        ]
      }
    },
    {
      "type": "Feature",
      "properties": {
        "norad_id": 29802,
        "name": "FENGYUN 1C DEB",
        "group": "fengyun-1c-debris",
        "lat": 80.19110161932608,
        "lon": -14.613368374989259,
        "alt_km": 697.9791692149493,
        "timestamp": "2025-12-20T14:38:02.241275+00:00",
        "meta_object_name": "FENGYUN 1C DEB",
        "meta_object_id": "1999-025CU",
        "meta_epoch": "2025-12-18T20:03:58.588128",
        "meta_mean_motion": 14.62468382,
        "meta_eccentricity": 0.00371931,
        "meta_inclination": 98.6193,
        "meta_ra_of_asc_node": 102.2149,
        "meta_arg_of_pericenter": 319.4333,
        "meta_mean_anomaly": 162.267,
        "meta_ephemeris_type": 0,
        "meta_classification_type": "U",
        "meta_norad_cat_id": 29802,
        "meta_element_set_no": 999,
        "meta_rev_at_epoch": 98562,
        "meta_bstar": 0.0019704594,
        "meta_mean_motion_dot": 0.0001004,
        "meta_mean_motion_ddot": 0,
        "tle_line1": "1 29802U 99025CU  25352.83609477  .00010040  00000+0  19705-2 0  9995",
        "tle_line2": "2 29802  98.6193 102.2149 0037193 319.4333 162.2670 14.62468382985625"
      },
      "geometry": {
        "type": "Point",
        "coordinates": [
          -14.613368374989259,
          80.19110161932608
        ]
      }
    },
    {
      "type": "Feature",
      "properties": {
        "norad_id": 29804,
        "name": "FENGYUN 1C DEB",
        "group": "fengyun-1c-debris",
        "lat": -39.515181453918316,
        "lon": 175.23521580104085,
        "alt_km": 849.2645183051327,
        "timestamp": "2025-12-20T14:38:02.241285+00:00",
        "meta_object_name": "FENGYUN 1C DEB",
        "meta_object_id": "1999-025CW",
        "meta_epoch": "2025-12-20T00:11:57.880320",
        "meta_mean_motion": 14.04323934,
        "meta_eccentricity": 0.00969422,
        "meta_inclination": 98.8047,
        "meta_ra_of_asc_node": 1.9965,
        "meta_arg_of_pericenter": 281.3549,
        "meta_mean_anomaly": 140.6542,
        "meta_ephemeris_type": 0,
        "meta_classification_type": "U",
        "meta_norad_cat_id": 29804,
        "meta_element_set_no": 999,
        "meta_rev_at_epoch": 96996,
        "meta_bstar": -3.3335533e-05,
        "meta_mean_motion_dot": -9.9e-07,
        "meta_mean_motion_ddot": 0,
        "tle_line1": "1 29804U 99025CW  25354.00830880 -.00000099  00000+0 -33336-4 0  9995",
        "tle_line2": "2 29804  98.8047   1.9965 0096942 281.3549 140.6542 14.04323934969967"
      },
      "geometry": {
        "type": "Point",
        "coordinates": [
          175.23521580104085,
          -39.515181453918316
        ]
      }
    },
    {
      "type": "Feature",
      "properties": {
        "norad_id": 29805,
        "name": "FENGYUN 1C DEB",
        "group": "fengyun-1c-debris",
        "lat": -26.378249423076728,
        "lon": -138.95903311199015,
        "alt_km": 856.995007449601,
        "timestamp": "2025-12-20T14:38:02.241295+00:00",
        "meta_object_name": "FENGYUN 1C DEB",
        "meta_object_id": "1999-025CX",
        "meta_epoch": "2025-12-20T03:07:41.972160",
        "meta_mean_motion": 13.72659669,
        "meta_eccentricity": 0.01882645,
        "meta_inclination": 99.4539,
        "meta_ra_of_asc_node": 45.3076,
        "meta_arg_of_pericenter": 210.5039,
        "meta_mean_anomaly": 148.5051,
        "meta_ephemeris_type": 0,
        "meta_classification_type": "U",
        "meta_norad_cat_id": 29805,
        "meta_element_set_no": 999,
        "meta_rev_at_epoch": 94804,
        "meta_bstar": 0.0001452443,
        "meta_mean_motion_dot": 1.07e-06,
        "meta_mean_motion_ddot": 0,
        "tle_line1": "1 29805U 99025CX  25354.13034690  .00000107  00000+0  14524-3 0  9990",
        "tle_line2": "2 29805  99.4539  45.3076 0188264 210.5039 148.5051 13.72659669948042"
      },
      "geometry": {
        "type": "Point",
        "coordinates": [
          -138.95903311199015,
          -26.378249423076728
        ]
      }
    },
    {
      "type": "Feature",
      "properties": {
        "norad_id": 29806,
        "name": "FENGYUN 1C DEB",
        "group": "fengyun-1c-debris",
        "lat": 80.59329022942708,
        "lon": -57.57690804435484,
        "alt_km": 860.9631460441633,
        "timestamp": "2025-12-20T14:38:02.241305+00:00",
        "meta_object_name": "FENGYUN 1C DEB",
        "meta_object_id": "1999-025CY",
        "meta_epoch": "2025-12-20T00:55:24.468096",
        "meta_mean_motion": 14.12019925,
        "meta_eccentricity": 0.00278248,
        "meta_inclination": 98.7122,
        "meta_ra_of_asc_node": 9.6206,
        "meta_arg_of_pericenter": 230.5435,
        "meta_mean_anomaly": 193.8096,
        "meta_ephemeris_type": 0,
        "meta_classification_type": "U",
        "meta_norad_cat_id": 29806,
        "meta_element_set_no": 999,
        "meta_rev_at_epoch": 97242,
        "meta_bstar": 0.00039573028,
        "meta_mean_motion_dot": 6.84e-06,
        "meta_mean_motion_ddot": 0,
        "tle_line1": "1 29806U 99025CY  25354.03847764  .00000684  00000+0  39573-3 0  9995",
        "tle_line2": "2 29806  98.7122   9.6206 0027824 230.5435 193.8096 14.12019925972428"
      },
      "geometry": {
        "type": "Point",
        "coordinates": [
          -57.57690804435484,
          80.59329022942708
        ]
      }
    }
  ]
}